STARLINK-35444          
1 66511U 25263AC  25329.50006943 -.01754024  85470-3 -48676-2 0  9990
2 66511  42.9985 228.4379 0001676 262.4514 237.8246 15.92986683  2862
STARLINK-35366          
1 66512U 25263AD  25329.50006943 -.01785021  88349-3 -49364-2 0  9995
2 66512  42.9983 228.4219 0001619 262.2071 244.2840 15.93057205  2869
STARLINK-35692          
1 66513U 25263AE  25329.50006943 -.01753978  85438-3 -48758-2 0  9994
2 66513  42.9986 228.4447 0001804 265.7400 231.8921 15.92953656  2862
SENTINEL-6B             
1 66514U 25264A   25329.04707549  .00000749  00000+0  32827-2 0  9991
2 66514  66.0392 199.4329 0011528 269.6414  90.3283 12.85877374  1015
SZ-21 MODULE            
1 66515U 25246C   25329.46659177  .00030333  00000+0  34921-3 0  9991
2 66515  41.4756 121.3198 0004905 147.7697 212.3443 15.61308033  1747
SHIJIAN-30A             
1 66545U 25266A   25329.47857867  .00012939  00000+0  68513-3 0  9999
2 66545  51.7991  53.7062 0012908 295.6922  64.2721 15.15668337   960
SHIJIAN-30B             
1 66546U 25266B   25329.47960512  .00015129  00000+0  80554-3 0  9995
2 66546  51.7973  53.7126 0010609 295.7124  64.2756 15.15361026   966
SHIJIAN-30C             
1 66547U 25266C   25329.48058954  .00010155  00000+0  54853-3 0  9992
2 66547  51.7984  53.7192 0011273 287.5897  72.3848 15.15219091   962
CZ-2C R/B               
1 66548U 25266D   25329.48713831  .00014634  00000+0  46126-3 0  9995
2 66548  52.0562  53.4401 0085284 114.1542 246.8390 15.29633122   975
ELECTRON R/B            
1 66556U 25267C   25325.68896391  .00330020  73273-5  18540-3 0  9993
2 66556  42.0620 178.0185 0218594 275.5638  82.0326 15.83492186   186
