CCSDS_OMM_VERS = 2.0
CREATION_DATE  = 
ORIGINATOR     = 

OBJECT_NAME    = STARLINK-35444
OBJECT_ID      = 2025-263AC
CENTER_NAME    = EARTH
REF_FRAME      = TEME
TIME_SYSTEM    = UTC
MEAN_ELEMENT_THEORY = SGP/SGP4

EPOCH          = 2025-11-25T12:00:05.998752
MEAN_MOTION    = 15.92986683
ECCENTRICITY   = .0001676
INCLINATION    = 42.9985
RA_OF_ASC_NODE = 228.4379
ARG_OF_PERICENTER = 262.4514
MEAN_ANOMALY   = 237.8246

EPHEMERIS_TYPE = 0
CLASSIFICATION_TYPE = U
NORAD_CAT_ID   = 66511
ELEMENT_SET_NO = 999
REV_AT_EPOCH   = 286
BSTAR          = -.48676E-2
MEAN_MOTION_DOT = -.1754024E-1
MEAN_MOTION_DDOT = .8547E-3

CCSDS_OMM_VERS = 2.0
CREATION_DATE  = 
ORIGINATOR     = 

OBJECT_NAME    = STARLINK-35366
OBJECT_ID      = 2025-263AD
CENTER_NAME    = EARTH
REF_FRAME      = TEME
TIME_SYSTEM    = UTC
MEAN_ELEMENT_THEORY = SGP/SGP4

EPOCH          = 2025-11-25T12:00:05.998752
MEAN_MOTION    = 15.93057205
ECCENTRICITY   = .0001619
INCLINATION    = 42.9983
RA_OF_ASC_NODE = 228.4219
ARG_OF_PERICENTER = 262.2071
MEAN_ANOMALY   = 244.2840

EPHEMERIS_TYPE = 0
CLASSIFICATION_TYPE = U
NORAD_CAT_ID   = 66512
ELEMENT_SET_NO = 999
REV_AT_EPOCH   = 286
BSTAR          = -.49364E-2
MEAN_MOTION_DOT = -.1785021E-1
MEAN_MOTION_DDOT = .88349E-3

CCSDS_OMM_VERS = 2.0
CREATION_DATE  = 
ORIGINATOR     = 

OBJECT_NAME    = STARLINK-35692
OBJECT_ID      = 2025-263AE
CENTER_NAME    = EARTH
REF_FRAME      = TEME
TIME_SYSTEM    = UTC
MEAN_ELEMENT_THEORY = SGP/SGP4

EPOCH          = 2025-11-25T12:00:05.998752
MEAN_MOTION    = 15.92953656
ECCENTRICITY   = .0001804
INCLINATION    = 42.9986
RA_OF_ASC_NODE = 228.4447
ARG_OF_PERICENTER = 265.7400
MEAN_ANOMALY   = 231.8921

EPHEMERIS_TYPE = 0
CLASSIFICATION_TYPE = U
NORAD_CAT_ID   = 66513
ELEMENT_SET_NO = 999
REV_AT_EPOCH   = 286
BSTAR          = -.48758E-2
MEAN_MOTION_DOT = -.1753978E-1
MEAN_MOTION_DDOT = .85438E-3

CCSDS_OMM_VERS = 2.0
CREATION_DATE  = 
ORIGINATOR     = 

OBJECT_NAME    = SENTINEL-6B
OBJECT_ID      = 2025-264A
CENTER_NAME    = EARTH
REF_FRAME      = TEME
TIME_SYSTEM    = UTC
MEAN_ELEMENT_THEORY = SGP/SGP4

EPOCH          = 2025-11-25T01:07:47.322336
MEAN_MOTION    = 12.85877374
ECCENTRICITY   = .00115282
INCLINATION    = 66.0392
RA_OF_ASC_NODE = 199.4329
ARG_OF_PERICENTER = 269.6414
MEAN_ANOMALY   = 90.3283

EPHEMERIS_TYPE = 0
CLASSIFICATION_TYPE = U
NORAD_CAT_ID   = 66514
ELEMENT_SET_NO = 999
REV_AT_EPOCH   = 101
BSTAR          = .32826759E-2
MEAN_MOTION_DOT = .749E-5
MEAN_MOTION_DDOT = 0

CCSDS_OMM_VERS = 2.0
CREATION_DATE  = 
ORIGINATOR     = 

OBJECT_NAME    = SZ-21 MODULE
OBJECT_ID      = 2025-246C
CENTER_NAME    = EARTH
REF_FRAME      = TEME
TIME_SYSTEM    = UTC
MEAN_ELEMENT_THEORY = SGP/SGP4

EPOCH          = 2025-11-25T11:11:53.528928
MEAN_MOTION    = 15.61308033
ECCENTRICITY   = .0004905
INCLINATION    = 41.4756
RA_OF_ASC_NODE = 121.3198
ARG_OF_PERICENTER = 147.7697
MEAN_ANOMALY   = 212.3443

EPHEMERIS_TYPE = 0
CLASSIFICATION_TYPE = U
NORAD_CAT_ID   = 66515
ELEMENT_SET_NO = 999
REV_AT_EPOCH   = 174
BSTAR          = .34921E-3
MEAN_MOTION_DOT = .30333E-3
MEAN_MOTION_DDOT = 0

CCSDS_OMM_VERS = 2.0
CREATION_DATE  = 
ORIGINATOR     = 

OBJECT_NAME    = SHIJIAN-30A
OBJECT_ID      = 2025-266A
CENTER_NAME    = EARTH
REF_FRAME      = TEME
TIME_SYSTEM    = UTC
MEAN_ELEMENT_THEORY = SGP/SGP4

EPOCH          = 2025-11-25T11:29:09.197088
MEAN_MOTION    = 15.15668337
ECCENTRICITY   = .0012908
INCLINATION    = 51.7991
RA_OF_ASC_NODE = 53.7062
ARG_OF_PERICENTER = 295.6922
MEAN_ANOMALY   = 64.2721

EPHEMERIS_TYPE = 0
CLASSIFICATION_TYPE = U
NORAD_CAT_ID   = 66545
ELEMENT_SET_NO = 999
REV_AT_EPOCH   = 96
BSTAR          = .68513E-3
MEAN_MOTION_DOT = .12939E-3
MEAN_MOTION_DDOT = 0

CCSDS_OMM_VERS = 2.0
CREATION_DATE  = 
ORIGINATOR     = 

OBJECT_NAME    = SHIJIAN-30B
OBJECT_ID      = 2025-266B
CENTER_NAME    = EARTH
REF_FRAME      = TEME
TIME_SYSTEM    = UTC
MEAN_ELEMENT_THEORY = SGP/SGP4

EPOCH          = 2025-11-25T11:30:37.882368
MEAN_MOTION    = 15.15361026
ECCENTRICITY   = .0010609
INCLINATION    = 51.7973
RA_OF_ASC_NODE = 53.7126
ARG_OF_PERICENTER = 295.7124
MEAN_ANOMALY   = 64.2756

EPHEMERIS_TYPE = 0
CLASSIFICATION_TYPE = U
NORAD_CAT_ID   = 66546
ELEMENT_SET_NO = 999
REV_AT_EPOCH   = 96
BSTAR          = .80554E-3
MEAN_MOTION_DOT = .15129E-3
MEAN_MOTION_DDOT = 0

CCSDS_OMM_VERS = 2.0
CREATION_DATE  = 
ORIGINATOR     = 

OBJECT_NAME    = SHIJIAN-30C
OBJECT_ID      = 2025-266C
CENTER_NAME    = EARTH
REF_FRAME      = TEME
TIME_SYSTEM    = UTC
MEAN_ELEMENT_THEORY = SGP/SGP4

EPOCH          = 2025-11-25T11:32:02.936256
MEAN_MOTION    = 15.15219091
ECCENTRICITY   = .0011273
INCLINATION    = 51.7984
RA_OF_ASC_NODE = 53.7192
ARG_OF_PERICENTER = 287.5897
MEAN_ANOMALY   = 72.3848

EPHEMERIS_TYPE = 0
CLASSIFICATION_TYPE = U
NORAD_CAT_ID   = 66547
ELEMENT_SET_NO = 999
REV_AT_EPOCH   = 96
BSTAR          = .54853E-3
MEAN_MOTION_DOT = .10155E-3
MEAN_MOTION_DDOT = 0

CCSDS_OMM_VERS = 2.0
CREATION_DATE  = 
ORIGINATOR     = 

OBJECT_NAME    = CZ-2C R/B
OBJECT_ID      = 2025-266D
CENTER_NAME    = EARTH
REF_FRAME      = TEME
TIME_SYSTEM    = UTC
MEAN_ELEMENT_THEORY = SGP/SGP4

EPOCH          = 2025-11-25T11:41:28.749984
MEAN_MOTION    = 15.29633122
ECCENTRICITY   = .0085284
INCLINATION    = 52.0562
RA_OF_ASC_NODE = 53.4401
ARG_OF_PERICENTER = 114.1542
MEAN_ANOMALY   = 246.8390

EPHEMERIS_TYPE = 0
CLASSIFICATION_TYPE = U
NORAD_CAT_ID   = 66548
ELEMENT_SET_NO = 999
REV_AT_EPOCH   = 97
BSTAR          = .46126E-3
MEAN_MOTION_DOT = .14634E-3
MEAN_MOTION_DDOT = 0

CCSDS_OMM_VERS = 2.0
CREATION_DATE  = 
ORIGINATOR     = 

OBJECT_NAME    = ELECTRON R/B
OBJECT_ID      = 2025-267C
CENTER_NAME    = EARTH
REF_FRAME      = TEME
TIME_SYSTEM    = UTC
MEAN_ELEMENT_THEORY = SGP/SGP4

EPOCH          = 2025-11-21T16:32:06.481824
MEAN_MOTION    = 15.83492186
ECCENTRICITY   = .0218594
INCLINATION    = 42.0620
RA_OF_ASC_NODE = 178.0185
ARG_OF_PERICENTER = 275.5638
MEAN_ANOMALY   = 82.0326

EPHEMERIS_TYPE = 0
CLASSIFICATION_TYPE = U
NORAD_CAT_ID   = 66556
ELEMENT_SET_NO = 999
REV_AT_EPOCH   = 18
BSTAR          = .18539664E-3
MEAN_MOTION_DOT = .33002E-2
MEAN_MOTION_DDOT = .7327328E-5

